ONEWEB-0411             
1 51623U 22012B   25221.39804340 -.00000066  00000+0 -22568-3 0  9996
2 51623  87.8791  98.4558 0001417  60.7350 299.3919 13.10376409168452
ONEWEB-0415             
1 51624U 22012C   25221.39471986 -.00000203  00000+0 -61650-3 0  9991
2 51624  87.8788  98.4596 0001551  70.6260 289.5035 13.10376202168451
ONEWEB-0416             
1 51625U 22012D   25221.48270750  .00000413  00000+0  11458-2 0  9999
2 51625  87.8791  98.4607 0001700  78.8843 281.2475 13.10376045168500
ONEWEB-0422             
1 51626U 22012E   25221.58536050  .00000073  00000+0  15537-3 0  9994
2 51626  87.9035  67.8577 0002288  70.8205 289.3174 13.17648672172779
ONEWEB-0423             
1 51627U 22012F   25221.57861331  .00000046  00000+0  84637-4 0  9995
2 51627  87.9038  67.8673 0001850  85.3405 274.7938 13.17648267172661
ONEWEB-0425             
1 51628U 22012G   25221.41631894  .00000677  00000+0  19034-2 0  9995
2 51628  87.8786  98.4436 0001866  89.1088 271.0253 13.10373246168495
ONEWEB-0428             
1 51629U 22012H   25221.39638126 -.00000060  00000+0 -20754-3 0  9998
2 51629  87.8790  98.4693 0001828  72.2762 287.8564 13.10376945168451
ONEWEB-0431             
1 51630U 22012J   25221.59543625  .00000964  00000+0  27248-2 0  9996
2 51630  87.8793  98.3999 0001513  56.3444 303.7828 13.10381669168534
ONEWEB-0434             
1 51631U 22012K   25221.57235304  .00000680  00000+0  19123-2 0  9995
2 51631  87.8789  98.4472 0002051  96.5706 263.5655 13.10372328168513
ONEWEB-0435             
1 51632U 22012L   25221.35157488  .00000527  00000+0  14727-2 0  9993
2 51632  87.8784  98.4838 0002062  70.1561 289.9788 13.10370169168479
ONEWEB-0436             
1 51633U 22012M   25221.57017318  .00000064  00000+0  13203-3 0  9990
2 51633  87.9025  67.8533 0001816  78.1628 281.9707 13.17648404172643
ONEWEB-0438             
1 51634U 22012N   25221.41133429  .00000587  00000+0  16449-2 0  9990
2 51634  87.8788  98.4725 0001804  84.0417 276.0916 13.10375013168515
ONEWEB-0439             
1 51635U 22012P   25221.41465472  .00000685  00000+0  19271-2 0  9992
2 51635  87.8790  98.4602 0001841  78.1810 281.9523 13.10374140168491
ONEWEB-0442             
1 51636U 22012Q   25221.56257571  .00000065  00000+0  13513-3 0  9994
2 51636  87.9025  67.9085 0001655 107.1907 252.9406 13.17650419172635
ONEWEB-0443             
1 51637U 22012R   25221.58198840  .00000045  00000+0  81708-4 0  9990
2 51637  87.9022  67.9138 0002057  91.3877 268.7490 13.17648505172685
ONEWEB-0444             
1 51638U 22012S   25221.40468999  .00000378  00000+0  10476-2 0  9998
2 51638  87.8787  98.4630 0001936  77.0692 283.0651 13.10376500168501
ONEWEB-0445             
1 51639U 22012T   25221.34990943  .00000547  00000+0  15314-2 0  9995
2 51639  87.8778  98.4263 0001606  81.2017 278.9292 13.10370263168500
