[{"OBJECT_NAME":"ONEWEB-0411","OBJECT_ID":"2022-012B","EPOCH":"2025-08-09T09:33:10.949760","MEAN_MOTION":13.10376409,"ECCENTRICITY":0.0001417,"INCLINATION":87.8791,"RA_OF_ASC_NODE":98.4558,"ARG_OF_PERICENTER":60.735,"MEAN_ANOMALY":299.3919,"EPHEMERIS_TYPE":0,"CLASSIFICATION_TYPE":"U","NORAD_CAT_ID":51623,"ELEMENT_SET_NO":999,"REV_AT_EPOCH":16845,"BSTAR":-0.00022568,"MEAN_MOTION_DOT":-6.6e-7,"MEAN_MOTION_DDOT":0},{"OBJECT_NAME":"ONEWEB-0415","OBJECT_ID":"2022-012C","EPOCH":"2025-08-09T09:28:23.795904","MEAN_MOTION":13.10376202,"ECCENTRICITY":0.0001551,"INCLINATION":87.8788,"RA_OF_ASC_NODE":98.4596,"ARG_OF_PERICENTER":70.626,"MEAN_ANOMALY":289.5035,"EPHEMERIS_TYPE":0,"CLASSIFICATION_TYPE":"U","NORAD_CAT_ID":51624,"ELEMENT_SET_NO":999,"REV_AT_EPOCH":16845,"BSTAR":-0.0006165,"MEAN_MOTION_DOT":-2.03e-6,"MEAN_MOTION_DDOT":0},{"OBJECT_NAME":"ONEWEB-0416","OBJECT_ID":"2022-012D","EPOCH":"2025-08-09T11:35:05.928000","MEAN_MOTION":13.10376045,"ECCENTRICITY":0.00017,"INCLINATION":87.8791,"RA_OF_ASC_NODE":98.4607,"ARG_OF_PERICENTER":78.8843,"MEAN_ANOMALY":281.2475,"EPHEMERIS_TYPE":0,"CLASSIFICATION_TYPE":"U","NORAD_CAT_ID":51625,"ELEMENT_SET_NO":999,"REV_AT_EPOCH":16850,"BSTAR":0.0011458,"MEAN_MOTION_DOT":4.13e-6,"MEAN_MOTION_DDOT":0},{"OBJECT_NAME":"ONEWEB-0422","OBJECT_ID":"2022-012E","EPOCH":"2025-08-09T14:02:55.147200","MEAN_MOTION":13.17648672,"ECCENTRICITY":0.0002288,"INCLINATION":87.9035,"RA_OF_ASC_NODE":67.8577,"ARG_OF_PERICENTER":70.8205,"MEAN_ANOMALY":289.3174,"EPHEMERIS_TYPE":0,"CLASSIFICATION_TYPE":"U","NORAD_CAT_ID":51626,"ELEMENT_SET_NO":999,"REV_AT_EPOCH":17277,"BSTAR":0.00015537,"MEAN_MOTION_DOT":7.3e-7,"MEAN_MOTION_DDOT":0},{"OBJECT_NAME":"ONEWEB-0423","OBJECT_ID":"2022-012F","EPOCH":"2025-08-09T13:53:12.189984","MEAN_MOTION":13.17648267,"ECCENTRICITY":0.000185,"INCLINATION":87.9038,"RA_OF_ASC_NODE":67.8673,"ARG_OF_PERICENTER":85.3405,"MEAN_ANOMALY":274.7938,"EPHEMERIS_TYPE":0,"CLASSIFICATION_TYPE":"U","NORAD_CAT_ID":51627,"ELEMENT_SET_NO":999,"REV_AT_EPOCH":17266,"BSTAR":8.4637e-5,"MEAN_MOTION_DOT":4.6e-7,"MEAN_MOTION_DDOT":0},{"OBJECT_NAME":"ONEWEB-0425","OBJECT_ID":"2022-012G","EPOCH":"2025-08-09T09:59:29.956416","MEAN_MOTION":13.10373246,"ECCENTRICITY":0.0001866,"INCLINATION":87.8786,"RA_OF_ASC_NODE":98.4436,"ARG_OF_PERICENTER":89.1088,"MEAN_ANOMALY":271.0253,"EPHEMERIS_TYPE":0,"CLASSIFICATION_TYPE":"U","NORAD_CAT_ID":51628,"ELEMENT_SET_NO":999,"REV_AT_EPOCH":16849,"BSTAR":0.0019034,"MEAN_MOTION_DOT":6.77e-6,"MEAN_MOTION_DDOT":0},{"OBJECT_NAME":"ONEWEB-0428","OBJECT_ID":"2022-012H","EPOCH":"2025-08-09T09:30:47.340864","MEAN_MOTION":13.10376945,"ECCENTRICITY":0.0001828,"INCLINATION":87.879,"RA_OF_ASC_NODE":98.4693,"ARG_OF_PERICENTER":72.2762,"MEAN_ANOMALY":287.8564,"EPHEMERIS_TYPE":0,"CLASSIFICATION_TYPE":"U","NORAD_CAT_ID":51629,"ELEMENT_SET_NO":999,"REV_AT_EPOCH":16845,"BSTAR":-0.00020754,"MEAN_MOTION_DOT":-6.0e-7,"MEAN_MOTION_DDOT":0},{"OBJECT_NAME":"ONEWEB-0431","OBJECT_ID":"2022-012J","EPOCH":"2025-08-09T14:17:25.692000","MEAN_MOTION":13.10381669,"ECCENTRICITY":0.0001513,"INCLINATION":87.8793,"RA_OF_ASC_NODE":98.3999,"ARG_OF_PERICENTER":56.3444,"MEAN_ANOMALY":303.7828,"EPHEMERIS_TYPE":0,"CLASSIFICATION_TYPE":"U","NORAD_CAT_ID":51630,"ELEMENT_SET_NO":999,"REV_AT_EPOCH":16853,"BSTAR":0.0027248,"MEAN_MOTION_DOT":9.64e-6,"MEAN_MOTION_DDOT":0},{"OBJECT_NAME":"ONEWEB-0434","OBJECT_ID":"2022-012K","EPOCH":"2025-08-09T13:44:11.302656","MEAN_MOTION":13.10372328,"ECCENTRICITY":0.0002051,"INCLINATION":87.8789,"RA_OF_ASC_NODE":98.4472,"ARG_OF_PERICENTER":96.5706,"MEAN_ANOMALY":263.5655,"EPHEMERIS_TYPE":0,"CLASSIFICATION_TYPE":"U","NORAD_CAT_ID":51631,"ELEMENT_SET_NO":999,"REV_AT_EPOCH":16851,"BSTAR":0.0019123,"MEAN_MOTION_DOT":6.8e-6,"MEAN_MOTION_DDOT":0},{"OBJECT_NAME":"ONEWEB-0435","OBJECT_ID":"2022-012L","EPOCH":"2025-08-09T08:26:16.069632","MEAN_MOTION":13.10370169,"ECCENTRICITY":0.0002062,"INCLINATION":87.8784,"RA_OF_ASC_NODE":98.4838,"ARG_OF_PERICENTER":70.1561,"MEAN_ANOMALY":289.9788,"EPHEMERIS_TYPE":0,"CLASSIFICATION_TYPE":"U","NORAD_CAT_ID":51632,"ELEMENT_SET_NO":999,"REV_AT_EPOCH":16847,"BSTAR":0.0014727,"MEAN_MOTION_DOT":5.27e-6,"MEAN_MOTION_DDOT":0},{"OBJECT_NAME":"ONEWEB-0436","OBJECT_ID":"2022-012M","EPOCH":"2025-08-09T13:41:02.962752","MEAN_MOTION":13.17648404,"ECCENTRICITY":0.0001816,"INCLINATION":87.9025,"RA_OF_ASC_NODE":67.8533,"ARG_OF_PERICENTER":78.1628,"MEAN_ANOMALY":281.9707,"EPHEMERIS_TYPE":0,"CLASSIFICATION_TYPE":"U","NORAD_CAT_ID":51633,"ELEMENT_SET_NO":999,"REV_AT_EPOCH":17264,"BSTAR":0.00013203,"MEAN_MOTION_DOT":6.4e-7,"MEAN_MOTION_DDOT":0},{"OBJECT_NAME":"ONEWEB-0438","OBJECT_ID":"2022-012N","EPOCH":"2025-08-09T09:52:19.282656","MEAN_MOTION":13.10375013,"ECCENTRICITY":0.0001804,"INCLINATION":87.8788,"RA_OF_ASC_NODE":98.4725,"ARG_OF_PERICENTER":84.0417,"MEAN_ANOMALY":276.0916,"EPHEMERIS_TYPE":0,"CLASSIFICATION_TYPE":"U","NORAD_CAT_ID":51634,"ELEMENT_SET_NO":999,"REV_AT_EPOCH":16851,"BSTAR":0.0016449,"MEAN_MOTION_DOT":5.87e-6,"MEAN_MOTION_DDOT":0},{"OBJECT_NAME":"ONEWEB-0439","OBJECT_ID":"2022-012P","EPOCH":"2025-08-09T09:57:06.167808","MEAN_MOTION":13.1037414,"ECCENTRICITY":0.0001841,"INCLINATION":87.879,"RA_OF_ASC_NODE":98.4602,"ARG_OF_PERICENTER":78.181,"MEAN_ANOMALY":281.9523,"EPHEMERIS_TYPE":0,"CLASSIFICATION_TYPE":"U","NORAD_CAT_ID":51635,"ELEMENT_SET_NO":999,"REV_AT_EPOCH":16849,"BSTAR":0.0019271,"MEAN_MOTION_DOT":6.85e-6,"MEAN_MOTION_DDOT":0},{"OBJECT_NAME":"ONEWEB-0442","OBJECT_ID":"2022-012Q","EPOCH":"2025-08-09T13:30:06.541344","MEAN_MOTION":13.17650419,"ECCENTRICITY":0.0001655,"INCLINATION":87.9025,"RA_OF_ASC_NODE":67.9085,"ARG_OF_PERICENTER":107.1907,"MEAN_ANOMALY":252.9406,"EPHEMERIS_TYPE":0,"CLASSIFICATION_TYPE":"U","NORAD_CAT_ID":51636,"ELEMENT_SET_NO":999,"REV_AT_EPOCH":17263,"BSTAR":0.00013513,"MEAN_MOTION_DOT":6.5e-7,"MEAN_MOTION_DDOT":0},{"OBJECT_NAME":"ONEWEB-0443","OBJECT_ID":"2022-012R","EPOCH":"2025-08-09T13:58:03.797760","MEAN_MOTION":13.17648505,"ECCENTRICITY":0.0002057,"INCLINATION":87.9022,"RA_OF_ASC_NODE":67.9138,"ARG_OF_PERICENTER":91.3877,"MEAN_ANOMALY":268.749,"EPHEMERIS_TYPE":0,"CLASSIFICATION_TYPE":"U","NORAD_CAT_ID":51637,"ELEMENT_SET_NO":999,"REV_AT_EPOCH":17268,"BSTAR":8.1708e-5,"MEAN_MOTION_DOT":4.5e-7,"MEAN_MOTION_DDOT":0},{"OBJECT_NAME":"ONEWEB-0444","OBJECT_ID":"2022-012S","EPOCH":"2025-08-09T09:42:45.215136","MEAN_MOTION":13.103765,"ECCENTRICITY":0.0001936,"INCLINATION":87.8787,"RA_OF_ASC_NODE":98.463,"ARG_OF_PERICENTER":77.0692,"MEAN_ANOMALY":283.0651,"EPHEMERIS_TYPE":0,"CLASSIFICATION_TYPE":"U","NORAD_CAT_ID":51638,"ELEMENT_SET_NO":999,"REV_AT_EPOCH":16850,"BSTAR":0.0010476,"MEAN_MOTION_DOT":3.78e-6,"MEAN_MOTION_DDOT":0},{"OBJECT_NAME":"ONEWEB-0445","OBJECT_ID":"2022-012T","EPOCH":"2025-08-09T08:23:52.174752","MEAN_MOTION":13.10370263,"ECCENTRICITY":0.0001606,"INCLINATION":87.8778,"RA_OF_ASC_NODE":98.4263,"ARG_OF_PERICENTER":81.2017,"MEAN_ANOMALY":278.9292,"EPHEMERIS_TYPE":0,"CLASSIFICATION_TYPE":"U","NORAD_CAT_ID":51639,"ELEMENT_SET_NO":999,"REV_AT_EPOCH":16850,"BSTAR":0.0015314,"MEAN_MOTION_DOT":5.47e-6,"MEAN_MOTION_DDOT":0}]
